[{"OBJECT_NAME":"SITRO-AIS 8 (ANOKHIN)","OBJECT_ID":"2023-091AD","EPOCH":"2026-03-09T23:44:40.058592","MEAN_MOTION":15.29359179,"ECCENTRICITY":0.0012509,"INCLINATION":97.5169,"RA_OF_ASC_NODE":133.2823,"ARG_OF_PERICENTER":92.0171,"MEAN_ANOMALY":268.2501,"EPHEMERIS_TYPE":0,"CLASSIFICATION_TYPE":"U","NORAD_CAT_ID":57193,"ELEMENT_SET_NO":999,"REV_AT_EPOCH":14927,"BSTAR":0.00064982524,"MEAN_MOTION_DOT":0.00018494,"MEAN_MOTION_DDOT":0},{"OBJECT_NAME":"STARLINK-31956","OBJECT_ID":"2024-106J","EPOCH":"2026-03-08T04:31:34.799808","MEAN_MOTION":15.27591276,"ECCENTRICITY":9.028e-5,"INCLINATION":43.0006,"RA_OF_ASC_NODE":340.967,"ARG_OF_PERICENTER":260.5874,"MEAN_ANOMALY":99.4876,"EPHEMERIS_TYPE":0,"CLASSIFICATION_TYPE":"U","NORAD_CAT_ID":59930,"ELEMENT_SET_NO":999,"REV_AT_EPOCH":10029,"BSTAR":0.00017239806,"MEAN_MOTION_DOT":4.487e-5,"MEAN_MOTION_DDOT":0}]
